SatCatId,ObjectName,LaunchYear,OrbitalPeriod,LaunchMass,StatusCode,Inclination,Status,UcsData,OrbitClassEstimated,LaunchSiteCountry,Owner,UseType,Purpose,LaunchVehicleClass,TLE1,TLE2,MeanMotion,Eccentricity,OrbitClass
55615,STARLINK-5712,2023,95.84,290.0,+,43.0,Active,1,LEO,USA,USA,Commercial,Communications,Falcon,1 55615U 23020AY  24175.35589284  .00000718  00000+0  68217-4 0  9995,2 55615  43.0038 144.0933 0001354 265.7660  94.3028 15.02533930 75156,15.0253393,0.0001354,LEO
55616,STARLINK-5710,2023,95.84,290.0,+,43.0,Active,1,LEO,USA,USA,Commercial,Communications,Falcon,1 55616U 23020AZ  24175.34701034  .00000528  00000+0  54149-4 0  9992,2 55616  43.0022 144.0255 0001116 266.4141  93.6574 15.02537850 75158,15.0253785,0.0001116,LEO
55617,STARLINK-5721,2023,95.84,290.0,+,43.0,Active,1,LEO,USA,USA,Commercial,Communications,Falcon,1 55617U 23020BA  24175.28607961  .00001080  00000+0  95017-4 0  9993,2 55617  43.0033 144.4282 0001150 268.4356  91.6355 15.02542717 75145,15.02542717,0.000115,LEO
55618,STARLINK-5717,2023,95.84,290.0,+,43.0,Active,1,LEO,USA,USA,Commercial,Communications,Falcon,1 55618U 23020BB  24175.27943531  .00004653  00000+0  35932-3 0  9997,2 55618  43.0019 144.3813 0000906 298.0424  62.0326 15.02532539 75143,15.02532539,9.06e-05,LEO
55619,STARLINK-5720,2023,95.84,290.0,+,43.0,Active,1,LEO,USA,USA,Commercial,Communications,Falcon,1 55619U 23020BC  24175.40904872  .00001637  00000+0  13621-3 0  9998,2 55619  43.0026 143.6319 0001107 270.4187  89.6528 15.02539035 75168,15.02539035,0.0001107,LEO
55620,STARLINK-5718,2023,95.84,290.0,+,43.0,Active,1,LEO,USA,USA,Commercial,Communications,Falcon,1 55620U 23020BD  24174.00968553  .00000700  00000+0  66908-4 0  9998,2 55620  43.0041 151.1905 0001319 261.6387  98.4306 15.02539059 74955,15.02539059,0.0001319,LEO
55621,STARLINK-5709,2023,95.84,290.0,+,43.0,Active,1,LEO,USA,USA,Commercial,Communications,Falcon,1 55621U 23020BE  24175.28387538  .00000084  00000+0  21274-4 0  9990,2 55621  43.0022 144.4137 0001143 270.9197  89.1514 15.02528319 75141,15.02528319,0.0001143,LEO
55622,STARLINK-5702,2023,95.84,290.0,+,43.0,Active,1,LEO,USA,USA,Commercial,Communications,Falcon,1 55622U 23020BF  24175.27054428 -.00000439  00000+0 -17435-4 0  9999,2 55622  43.0039 144.3148 0001353 268.0949  91.9739 15.02527327 75145,15.02527327,0.0001353,LEO
55623,STARLINK-5698,2023,95.84,290.0,+,43.0,Active,1,LEO,USA,USA,Commercial,Communications,Falcon,1 55623U 23020BG  24174.26893896  .00000505  00000+0  52451-4 0  9997,2 55623  43.0049 149.6972 0001293 266.4986  93.5709 15.02534109 74999,15.02534109,0.0001293,LEO
55628,STARLINK-5484,2023,96.11,290.0,+,70.0,Active,1,LEO,USA,USA,Commercial,Communications,Falcon,1 55628U 23021A   24175.60108529 -.00000057  00000+0  30351-5 0  9993,2 55628  70.0000 338.0931 0002933 266.8594  93.2230 14.98329444 74816,14.98329444,0.0002933,LEO
55629,STARLINK-5497,2023,96.11,290.0,+,70.0,Active,1,LEO,USA,USA,Commercial,Communications,Falcon,1 55629U 23021B   24175.60525766  .00000374  00000+0  39115-4 0  9997,2 55629  70.0003 338.1085 0003000 267.1829  92.8987 14.98330655 74812,14.98330655,0.0003,LEO
55630,STARLINK-5303,2023,96.11,290.0,+,70.0,Active,1,LEO,USA,USA,Commercial,Communications,Falcon,1 55630U 23021C   24175.59690991 -.00000095  00000+0 -17960-6 0  9998,2 55630  70.0003 338.0785 0002935 265.2732  94.8092 14.98330889 74816,14.98330889,0.0002935,LEO
55631,STARLINK-5558,2023,96.11,290.0,+,70.0,Active,1,LEO,USA,USA,Commercial,Communications,Falcon,1 55631U 23021D   24175.57186341 -.00000238  00000+0 -12137-4 0  9994,2 55631  70.0006 337.9890 0002902 262.3823  97.7007 14.98329290 74810,14.9832929,0.0002902,LEO
55632,STARLINK-5546,2023,96.11,290.0,+,70.0,Active,1,LEO,USA,USA,Commercial,Communications,Falcon,1 55632U 23021E   24175.58853983  .00001986  00000+0  17411-3 0  9997,2 55632  69.9997 338.0460 0003251 271.6388  88.4399 14.98345597 74818,14.98345597,0.0003251,LEO
55633,STARLINK-5498,2023,96.11,290.0,+,70.0,Active,1,LEO,USA,USA,Commercial,Communications,Falcon,1 55633U 23021F   24175.58438630  .00001208  00000+0  10904-3 0  9993,2 55633  70.0005 338.0331 0002983 262.4414  97.6406 14.98328444 74811,14.98328444,0.0002983,LEO
55634,STARLINK-5500,2023,96.11,290.0,+,70.0,Active,1,LEO,USA,USA,Commercial,Communications,Falcon,1 55634U 23021G   24175.58872462  .00000170  00000+0  22024-4 0  9993,2 55634  70.0003 338.0484 0003107 269.3129  90.7674 14.98330408 74811,14.98330408,0.0003107,LEO
55635,STARLINK-5495,2023,96.11,290.0,+,70.0,Active,1,LEO,USA,USA,Commercial,Communications,Falcon,1 55635U 23021H   24175.56747009 -.00000883  00000+0 -66210-4 0  9998,2 55635  70.0012 318.1059 0002915 262.5230  97.5598 14.98324516 75301,14.98324516,0.0002915,LEO
55636,STARLINK-5218,2023,96.11,290.0,+,70.0,Active,1,LEO,USA,USA,Commercial,Communications,Falcon,1 55636U 23021J   24175.57603337  .00001633  00000+0  14464-3 0  9990,2 55636  70.0001 338.0037 0002972 270.2482  89.8336 14.98323648 74819,14.98323648,0.0002972,LEO
55637,STARLINK-5062,2023,96.11,290.0,+,70.0,Active,1,LEO,USA,USA,Commercial,Communications,Falcon,1 55637U 23021K   24175.58416106 -.00000202  00000+0 -91566-5 0  9991,2 55637  70.0012 318.1598 0002894 259.3985 100.6848 14.98331150 75304,14.9833115,0.0002894,LEO
55638,STARLINK-5507,2023,96.11,290.0,+,70.0,Active,1,LEO,USA,USA,Commercial,Communications,Falcon,1 55638U 23021L   24175.58021028  .00000226  00000+0  26752-4 0  9995,2 55638  70.0002 338.0186 0002969 263.8825  96.1996 14.98334654 74814,14.98334654,0.0002969,LEO
55639,STARLINK-5508,2023,96.11,290.0,+,70.0,Active,1,LEO,USA,USA,Commercial,Communications,Falcon,1 55639U 23021M   24175.56345828 -.00000087  00000+0  51986-6 0  9996,2 55639  70.0009 318.0878 0003004 267.5025  92.5790 14.98329465 75303,14.98329465,0.0003004,LEO
55640,STARLINK-5069,2023,96.11,290.0,+,70.0,Active,1,LEO,USA,USA,Commercial,Communications,Falcon,1 55640U 23021N   24175.55911395  .00000370  00000+0  38822-4 0  9991,2 55640  70.0008 318.0710 0002926 267.6987  92.3837 14.98334634 75000,14.98334634,0.0002926,LEO
55641,STARLINK-5065,2023,96.11,290.0,+,70.0,Active,1,LEO,USA,USA,Commercial,Communications,Falcon,1 55641U 23021P   24175.56763154 -.00000037  00000+0  47076-5 0  9994,2 55641  70.0012 318.1030 0002949 266.8367  93.2454 14.98331816 75307,14.98331816,0.0002949,LEO
55642,STARLINK-5478,2023,89.52,290.0,P,69.99,Active,1,LEO,USA,USA,Commercial,Communications,Falcon,1 55642U 23021Q   24175.62376157  .02391529  64795-2  27351-2 0  9990,2 55642  69.9922 302.2420 0008445 297.6758 249.7577 16.10444626 75398,16.10444626,0.0008445,LEO
55643,STARLINK-5483,2023,96.11,290.0,+,70.0,Active,1,LEO,USA,USA,Commercial,Communications,Falcon,1 55643U 23021R   24175.59668223  .00000127  00000+0  18449-4 0  9990,2 55643  70.0006 318.1970 0003006 261.2763  98.8056 14.98331858 75304,14.98331858,0.0003006,LEO
55644,STARLINK-5502,2023,96.11,290.0,+,70.0,Active,1,LEO,USA,USA,Commercial,Communications,Falcon,1 55644U 23021S   24175.57581690 -.00000135  00000+0 -35629-5 0  9992,2 55644  70.0011 318.1308 0002876 266.0494  94.0336 14.98328431 75306,14.98328431,0.0002876,LEO
55645,STARLINK-5102,2023,95.48,290.0,P,70.0,Active,1,LEO,USA,USA,Commercial,Communications,Falcon,1 55645U 23021T   24175.58335648 -.00031265  00000+0 -20248-2 0  9990,2 55645  70.0018 317.7680 0003053 268.2265  84.1012 15.08095729  5510,15.08095729,0.0003053,LEO
55646,STARLINK-5104,2023,96.11,290.0,+,70.0,Active,1,LEO,USA,USA,Commercial,Communications,Falcon,1 55646U 23021U   24175.58833504 -.00000024  00000+0  57412-5 0  9999,2 55646  70.0004 318.1731 0002976 266.5097  93.5722 14.98330616 75306,14.98330616,0.0002976,LEO
55647,STARLINK-5510,2023,96.11,290.0,+,70.0,Active,1,LEO,USA,USA,Commercial,Communications,Falcon,1 55647U 23021V   24175.60917847  .00000106  00000+0  16661-4 0  9996,2 55647  70.0001 317.8428 0003183 266.1339  93.9456 14.98333930 75310,14.9833393,0.0003183,LEO
55648,STARLINK-5501,2023,96.11,290.0,+,70.0,Active,1,LEO,USA,USA,Commercial,Communications,Falcon,1 55648U 23021W   24175.57164540  .00000204  00000+0  24905-4 0  9996,2 55648  70.0010 318.1166 0003092 270.7519  89.3286 14.98333528 75306,14.98333528,0.0003092,LEO
55649,STARLINK-5469,2023,96.11,290.0,+,70.0,Active,1,LEO,USA,USA,Commercial,Communications,Falcon,1 55649U 23021X   24175.55076564  .00000532  00000+0  52398-4 0  9994,2 55649  70.0004 318.0410 0003247 266.4770  93.6018 14.98335592 75308,14.98335592,0.0003247,LEO
55650,STARLINK-5494,2023,96.11,290.0,+,70.0,Active,1,LEO,USA,USA,Commercial,Communications,Falcon,1 55650U 23021Y   24175.56329226  .00000286  00000+0  31800-4 0  9994,2 55650  70.0010 318.0880 0002990 265.3014  94.7804 14.98330847 75001,14.98330847,0.000299,LEO
55651,STARLINK-5506,2023,96.11,290.0,+,70.0,Active,1,LEO,USA,USA,Commercial,Communications,Falcon,1 55651U 23021Z   24175.57998906 -.00000016  00000+0  64632-5 0  9995,2 55651  70.0010 318.1454 0002944 264.7330  95.3493 14.98329684 75304,14.98329684,0.0002944,LEO
55652,STARLINK-5487,2023,96.11,290.0,+,70.0,Active,1,LEO,USA,USA,Commercial,Communications,Falcon,1 55652U 23021AA  24175.55494262  .00000203  00000+0  24834-4 0  9996,2 55652  70.0007 318.0566 0003076 265.2496  94.8312 14.98332581 75304,14.98332581,0.0003076,LEO
55653,STARLINK-5067,2023,96.11,290.0,+,70.0,Active,1,LEO,USA,USA,Commercial,Communications,Falcon,1 55653U 23021AB  24175.60500503  .00000303  00000+0  33177-4 0  9990,2 55653  70.0003 317.8292 0003135 264.9688  95.1113 14.98332528 75314,14.98332528,0.0003135,LEO
55654,STARLINK-5070,2023,96.11,290.0,+,70.0,Active,1,LEO,USA,USA,Commercial,Communications,Falcon,1 55654U 23021AC  24175.59250979  .00000006  00000+0  82832-5 0  9991,2 55654  70.0010 318.1893 0002907 261.8056  98.2773 14.98333066 75308,14.98333066,0.0002907,LEO
